PROGRESS-MS 32          
1 65586U 25204A   25336.09225230  .00009217  00000+0  17381-3 0  9996
2 65586  51.6314 195.1903 0003638 193.8265 166.2625 15.49237019   272
CYGNUS NG-23            
1 65616U 25208A   25336.09225230  .00009217  00000+0  17381-3 0  9994
2 65616  51.6314 195.1903 0003638 193.8265 166.2625 15.49237019   221
DRAGONFLY               
1 65729U 98067XH  25335.97980384  .00135201  00000+0  11889-2 0  9995
2 65729  51.6258 190.6875 0006490 211.6532 148.4075 15.67818176 11475
1998-067XJ              
1 65730U 98067XJ  25335.83563562  .02710772  14802-1  27371-2 0  9991
2 65730  51.6109 185.8826 0010755 242.8010 117.1910 16.13832998 11527
1998-067XK              
1 65731U 98067XK  25336.32236728  .00090128  00000+0  95712-3 0  9990
2 65731  51.6289 189.9861 0005872 185.6112 174.4818 15.63286457 11511
RSP-03                  
1 65732U 98067XL  25336.02480822  .00110336  00000+0  10736-2 0  9990
2 65732  51.6275 190.9915 0006816 187.4004 172.6892 15.65401132 11487
GHS-01                  
1 65733U 98067XM  25335.88403726  .00164761  00000+0  13342-2 0  9999
2 65733  51.6283 190.8036 0007057 210.2397 149.8194 15.69713992 11472
YOTSUBA-KULOVER         
1 65941U 98067XN  25336.00447368  .00063827  00000+0  84730-3 0  9996
2 65941  51.6288 193.8589 0002267 162.3434 197.7638 15.57616304  8186
BOTAN                   
1 65942U 98067XP  25335.96627064  .00095633  00000+0  11467-2 0  9990
2 65942  51.6290 193.6047 0004542 166.4057 193.7060 15.60127991  8189
E-KAGAKU-1              
1 65943U 98067XQ  25335.04187093  .00064224  00000+0  85734-3 0  9994
2 65943  51.6301 198.6831 0003730 140.2253 219.9013 15.57460747  8033
HRC MONOBLOCK CAMERA    
1 66052U 98067XR  25336.16644477  .00037569  00000+0  59319-3 0  9996
2 66052  51.6294 194.1864 0004487 141.6415 218.4895 15.53119225  7194
HTV-X1                  
1 66174U 25241A   25336.09225230  .00009217  00000+0  17381-3 0  9991
2 66174  51.6314 195.1903 0003638 193.8265 166.2625 15.49237019   513
