CCSDS_OMM_VERS = 2.0
CREATION_DATE  = 
ORIGINATOR     = 

OBJECT_NAME    = PROGRESS-MS 32
OBJECT_ID      = 2025-204A
CENTER_NAME    = EARTH
REF_FRAME      = TEME
TIME_SYSTEM    = UTC
MEAN_ELEMENT_THEORY = SGP/SGP4

EPOCH          = 2025-12-02T02:12:50.598720
MEAN_MOTION    = 15.49237019
ECCENTRICITY   = .00036389
INCLINATION    = 51.6314
RA_OF_ASC_NODE = 195.1903
ARG_OF_PERICENTER = 193.8265
MEAN_ANOMALY   = 166.2625

EPHEMERIS_TYPE = 0
CLASSIFICATION_TYPE = U
NORAD_CAT_ID   = 65586
ELEMENT_SET_NO = 999
REV_AT_EPOCH   = 27
BSTAR          = .17380747E-3
MEAN_MOTION_DOT = .9217E-4
MEAN_MOTION_DDOT = 0

CCSDS_OMM_VERS = 2.0
CREATION_DATE  = 
ORIGINATOR     = 

OBJECT_NAME    = CYGNUS NG-23
OBJECT_ID      = 2025-208A
CENTER_NAME    = EARTH
REF_FRAME      = TEME
TIME_SYSTEM    = UTC
MEAN_ELEMENT_THEORY = SGP/SGP4

EPOCH          = 2025-12-02T02:12:50.598720
MEAN_MOTION    = 15.49237019
ECCENTRICITY   = .00036389
INCLINATION    = 51.6314
RA_OF_ASC_NODE = 195.1903
ARG_OF_PERICENTER = 193.8265
MEAN_ANOMALY   = 166.2625

EPHEMERIS_TYPE = 0
CLASSIFICATION_TYPE = U
NORAD_CAT_ID   = 65616
ELEMENT_SET_NO = 999
REV_AT_EPOCH   = 22
BSTAR          = .17380747E-3
MEAN_MOTION_DOT = .9217E-4
MEAN_MOTION_DDOT = 0

CCSDS_OMM_VERS = 2.0
CREATION_DATE  = 
ORIGINATOR     = 

OBJECT_NAME    = DRAGONFLY
OBJECT_ID      = 1998-067XH
CENTER_NAME    = EARTH
REF_FRAME      = TEME
TIME_SYSTEM    = UTC
MEAN_ELEMENT_THEORY = SGP/SGP4

EPOCH          = 2025-12-01T23:30:55.051776
MEAN_MOTION    = 15.67818176
ECCENTRICITY   = .00064903
INCLINATION    = 51.6258
RA_OF_ASC_NODE = 190.6875
ARG_OF_PERICENTER = 211.6532
MEAN_ANOMALY   = 148.4075

EPHEMERIS_TYPE = 0
CLASSIFICATION_TYPE = U
NORAD_CAT_ID   = 65729
ELEMENT_SET_NO = 999
REV_AT_EPOCH   = 1147
BSTAR          = .11888513E-2
MEAN_MOTION_DOT = .135201E-2
MEAN_MOTION_DDOT = 0

CCSDS_OMM_VERS = 2.0
CREATION_DATE  = 
ORIGINATOR     = 

OBJECT_NAME    = 1998-067XJ
OBJECT_ID      = 1998-067XJ
CENTER_NAME    = EARTH
REF_FRAME      = TEME
TIME_SYSTEM    = UTC
MEAN_ELEMENT_THEORY = SGP/SGP4

EPOCH          = 2025-12-01T20:03:18.917568
MEAN_MOTION    = 16.13832998
ECCENTRICITY   = .00107559
INCLINATION    = 51.6109
RA_OF_ASC_NODE = 185.8826
ARG_OF_PERICENTER = 242.8010
MEAN_ANOMALY   = 117.1910

EPHEMERIS_TYPE = 0
CLASSIFICATION_TYPE = U
NORAD_CAT_ID   = 65730
ELEMENT_SET_NO = 999
REV_AT_EPOCH   = 1152
BSTAR          = .27370981E-2
MEAN_MOTION_DOT = .2710772E-1
MEAN_MOTION_DDOT = .14802185E-1

CCSDS_OMM_VERS = 2.0
CREATION_DATE  = 
ORIGINATOR     = 

OBJECT_NAME    = 1998-067XK
OBJECT_ID      = 1998-067XK
CENTER_NAME    = EARTH
REF_FRAME      = TEME
TIME_SYSTEM    = UTC
MEAN_ELEMENT_THEORY = SGP/SGP4

EPOCH          = 2025-12-02T07:44:12.532992
MEAN_MOTION    = 15.63286457
ECCENTRICITY   = .0005872
INCLINATION    = 51.6289
RA_OF_ASC_NODE = 189.9861
ARG_OF_PERICENTER = 185.6112
MEAN_ANOMALY   = 174.4818

EPHEMERIS_TYPE = 0
CLASSIFICATION_TYPE = U
NORAD_CAT_ID   = 65731
ELEMENT_SET_NO = 999
REV_AT_EPOCH   = 1151
BSTAR          = .95712E-3
MEAN_MOTION_DOT = .90128E-3
MEAN_MOTION_DDOT = 0

CCSDS_OMM_VERS = 2.0
CREATION_DATE  = 
ORIGINATOR     = 

OBJECT_NAME    = RSP-03
OBJECT_ID      = 1998-067XL
CENTER_NAME    = EARTH
REF_FRAME      = TEME
TIME_SYSTEM    = UTC
MEAN_ELEMENT_THEORY = SGP/SGP4

EPOCH          = 2025-12-02T00:35:43.430208
MEAN_MOTION    = 15.65401132
ECCENTRICITY   = .00068166
INCLINATION    = 51.6275
RA_OF_ASC_NODE = 190.9915
ARG_OF_PERICENTER = 187.4004
MEAN_ANOMALY   = 172.6892

EPHEMERIS_TYPE = 0
CLASSIFICATION_TYPE = U
NORAD_CAT_ID   = 65732
ELEMENT_SET_NO = 999
REV_AT_EPOCH   = 1148
BSTAR          = .10736108E-2
MEAN_MOTION_DOT = .110336E-2
MEAN_MOTION_DDOT = 0

CCSDS_OMM_VERS = 2.0
CREATION_DATE  = 
ORIGINATOR     = 

OBJECT_NAME    = GHS-01
OBJECT_ID      = 1998-067XM
CENTER_NAME    = EARTH
REF_FRAME      = TEME
TIME_SYSTEM    = UTC
MEAN_ELEMENT_THEORY = SGP/SGP4

EPOCH          = 2025-12-01T21:13:00.819264
MEAN_MOTION    = 15.69713992
ECCENTRICITY   = .00070578
INCLINATION    = 51.6283
RA_OF_ASC_NODE = 190.8036
ARG_OF_PERICENTER = 210.2397
MEAN_ANOMALY   = 149.8194

EPHEMERIS_TYPE = 0
CLASSIFICATION_TYPE = U
NORAD_CAT_ID   = 65733
ELEMENT_SET_NO = 999
REV_AT_EPOCH   = 1147
BSTAR          = .13342092E-2
MEAN_MOTION_DOT = .164761E-2
MEAN_MOTION_DDOT = 0

CCSDS_OMM_VERS = 2.0
CREATION_DATE  = 
ORIGINATOR     = 

OBJECT_NAME    = YOTSUBA-KULOVER
OBJECT_ID      = 1998-067XN
CENTER_NAME    = EARTH
REF_FRAME      = TEME
TIME_SYSTEM    = UTC
MEAN_ELEMENT_THEORY = SGP/SGP4

EPOCH          = 2025-12-02T00:06:26.525952
MEAN_MOTION    = 15.57616304
ECCENTRICITY   = .00022672
INCLINATION    = 51.6288
RA_OF_ASC_NODE = 193.8589
ARG_OF_PERICENTER = 162.3434
MEAN_ANOMALY   = 197.7638

EPHEMERIS_TYPE = 0
CLASSIFICATION_TYPE = U
NORAD_CAT_ID   = 65941
ELEMENT_SET_NO = 999
REV_AT_EPOCH   = 818
BSTAR          = .84730448E-3
MEAN_MOTION_DOT = .63827E-3
MEAN_MOTION_DDOT = 0

CCSDS_OMM_VERS = 2.0
CREATION_DATE  = 
ORIGINATOR     = 

OBJECT_NAME    = BOTAN
OBJECT_ID      = 1998-067XP
CENTER_NAME    = EARTH
REF_FRAME      = TEME
TIME_SYSTEM    = UTC
MEAN_ELEMENT_THEORY = SGP/SGP4

EPOCH          = 2025-12-01T23:11:25.783296
MEAN_MOTION    = 15.60127991
ECCENTRICITY   = .00045427
INCLINATION    = 51.6290
RA_OF_ASC_NODE = 193.6047
ARG_OF_PERICENTER = 166.4057
MEAN_ANOMALY   = 193.7060

EPHEMERIS_TYPE = 0
CLASSIFICATION_TYPE = U
NORAD_CAT_ID   = 65942
ELEMENT_SET_NO = 999
REV_AT_EPOCH   = 818
BSTAR          = .11466978E-2
MEAN_MOTION_DOT = .95633E-3
MEAN_MOTION_DDOT = 0

CCSDS_OMM_VERS = 2.0
CREATION_DATE  = 
ORIGINATOR     = 

OBJECT_NAME    = E-KAGAKU-1
OBJECT_ID      = 1998-067XQ
CENTER_NAME    = EARTH
REF_FRAME      = TEME
TIME_SYSTEM    = UTC
MEAN_ELEMENT_THEORY = SGP/SGP4

EPOCH          = 2025-12-01T01:00:17.648352
MEAN_MOTION    = 15.57460747
ECCENTRICITY   = .00037303
INCLINATION    = 51.6301
RA_OF_ASC_NODE = 198.6831
ARG_OF_PERICENTER = 140.2253
MEAN_ANOMALY   = 219.9013

EPHEMERIS_TYPE = 0
CLASSIFICATION_TYPE = U
NORAD_CAT_ID   = 65943
ELEMENT_SET_NO = 999
REV_AT_EPOCH   = 803
BSTAR          = .8573363E-3
MEAN_MOTION_DOT = .64224E-3
MEAN_MOTION_DDOT = 0

CCSDS_OMM_VERS = 2.0
CREATION_DATE  = 
ORIGINATOR     = 

OBJECT_NAME    = HRC MONOBLOCK CAMERA
OBJECT_ID      = 1998-067XR
CENTER_NAME    = EARTH
REF_FRAME      = TEME
TIME_SYSTEM    = UTC
MEAN_ELEMENT_THEORY = SGP/SGP4

EPOCH          = 2025-12-02T03:59:40.828128
MEAN_MOTION    = 15.53119225
ECCENTRICITY   = .0004487
INCLINATION    = 51.6294
RA_OF_ASC_NODE = 194.1864
ARG_OF_PERICENTER = 141.6415
MEAN_ANOMALY   = 218.4895

EPHEMERIS_TYPE = 0
CLASSIFICATION_TYPE = U
NORAD_CAT_ID   = 66052
ELEMENT_SET_NO = 999
REV_AT_EPOCH   = 719
BSTAR          = .59319E-3
MEAN_MOTION_DOT = .37569E-3
MEAN_MOTION_DDOT = 0

CCSDS_OMM_VERS = 2.0
CREATION_DATE  = 
ORIGINATOR     = 

OBJECT_NAME    = HTV-X1
OBJECT_ID      = 2025-241A
CENTER_NAME    = EARTH
REF_FRAME      = TEME
TIME_SYSTEM    = UTC
MEAN_ELEMENT_THEORY = SGP/SGP4

EPOCH          = 2025-12-02T02:12:50.598720
MEAN_MOTION    = 15.49237019
ECCENTRICITY   = .00036389
INCLINATION    = 51.6314
RA_OF_ASC_NODE = 195.1903
ARG_OF_PERICENTER = 193.8265
MEAN_ANOMALY   = 166.2625

EPHEMERIS_TYPE = 0
CLASSIFICATION_TYPE = U
NORAD_CAT_ID   = 66174
ELEMENT_SET_NO = 999
REV_AT_EPOCH   = 51
BSTAR          = .17380747E-3
MEAN_MOTION_DOT = .9217E-4
MEAN_MOTION_DDOT = 0

